[{"OBJECT_NAME":"GAOFEN-9 02","OBJECT_ID":"2020-034B","EPOCH":"2026-03-10T00:01:23.433024","MEAN_MOTION":15.24736529,"ECCENTRICITY":0.00138652,"INCLINATION":97.5615,"RA_OF_ASC_NODE":225.1997,"ARG_OF_PERICENTER":60.5372,"MEAN_ANOMALY":299.7247,"EPHEMERIS_TYPE":0,"CLASSIFICATION_TYPE":"U","NORAD_CAT_ID":45625,"ELEMENT_SET_NO":999,"REV_AT_EPOCH":32104,"BSTAR":0.00036092627,"MEAN_MOTION_DOT":8.888e-5,"MEAN_MOTION_DDOT":0},{"OBJECT_NAME":"STARLINK-34041","OBJECT_ID":"2025-093J","EPOCH":"2026-03-09T01:37:41.680128","MEAN_MOTION":15.275951,"ECCENTRICITY":0.00013667,"INCLINATION":42.9984,"RA_OF_ASC_NODE":81.709,"ARG_OF_PERICENTER":276.6515,"MEAN_ANOMALY":83.4181,"EPHEMERIS_TYPE":0,"CLASSIFICATION_TYPE":"U","NORAD_CAT_ID":63844,"ELEMENT_SET_NO":999,"REV_AT_EPOCH":4787,"BSTAR":0.0011342279,"MEAN_MOTION_DOT":0.00031096,"MEAN_MOTION_DDOT":0}]
